MOZHAETS 4 (RS22)       
1 27939U 03042A   26087.95886604  .00001464  00000+0  23439-3 0  9996
2 27939  98.3459 270.0584 0011652 157.4502 357.7872 14.73306051203739
IRS-P6 (RESOURCESAT-1)  
1 28051U 03046A   26087.90051962  .00000018  00000+0  19870-4 0  9991
2 28051  98.2014 128.3129 0063268 222.3816 215.6606 14.36127430169000
SAUDISAT 2              
1 28371U 04025F   26087.93588300  .00000350  00000+0  89180-4 0  9998
2 28371  98.5507  85.8502 0024665 180.5167 179.6009 14.56631381154062
COSMOS 2407             
1 28380U 04028A   26087.90259415  .00000079  00000+0  64470-4 0  9993
2 28380  82.9595 134.3014 0040596 116.1591  56.2658 13.76327243 88832
COSMOS 2414             
1 28521U 05002A   26087.79453945  .00000065  00000+0  41320-4 0  9998
2 28521  82.9454 104.4623 0039664 196.6573 163.3291 13.87917750 72661
INMARSAT 4-F1           
1 28628U 05009A   26087.76642205  .00000017  00000+0  00000+0 0  9991
2 28628   5.0612  42.7187 0003076 343.5643 253.9005  1.00271974 76867
HAMSAT (VO-52)          
1 28650U 05017B   26087.77392260  .00005728  00000+0  36543-3 0  9998
2 28650  97.9983 107.4535 0018142 312.7639  47.2061 15.08990986134632
NOAA 18                 
1 28654U 05018A   26087.86343064  .00000048  00000+0  48505-4 0  9993
2 28654  98.8131 168.6998 0014568  23.7418 336.4424 14.13714606 74968
SJ-7                    
1 28737U 05024A   26087.82560546  .00010085  00000+0  46582-3 0  9998
2 28737  97.7382 115.8085 0014765 315.3702  44.6343 15.20310453135813
CUBESAT XI-V            
1 28895U 05043F   26087.67640956  .00002007  00000+0  32469-3 0  9995
2 28895  98.2868 241.6643 0015362 101.1756 259.1179 14.72395539 89907
CLOUDSAT                
1 29107U 06016A   26087.90231166  .00001226  00000+0  14644-3 0  9995
2 29107  98.4021 120.7168 0004356 220.9234 139.1653 14.86221523 62583
CALIPSO                 
1 29108U 06016B   26087.93748327  .00001370  00000+0  24174-3 0  9990
2 29108  98.4521 100.8579 0001465 108.9797 251.1567 14.69187309 61279
HINODE (SOLAR-B)        
1 29479U 06041A   26087.92282160  .00000778  00000+0  14242-3 0  9992
2 29479  98.0608 105.2454 0017553 178.1960 181.9312 14.68504105 43093
METOP-A                 
1 29499U 06044A   26087.92873272  .00001486  00000+0  17799-3 0  9994
2 29499  98.3254 192.1667 0173964 325.5983 155.4088 14.75642641 13615
SHIJIAN-6 02B (SJ-6 02B)
1 29506U 06046B   26087.89655358  .00002228  00000+0  17862-3 0  9990
2 29506  97.7102 117.4818 0012785 341.8977  18.1790 15.01092937 58693
DMSP 5D-3 F17 (USA 191) 
1 29522U 06050A   26087.84110430  .00000201  00000+0  12616-3 0  9996
2 29522  98.7409  96.0478 0008949 287.7449  72.2747 14.14972443  1069
LAPAN-TUBSAT            
1 29709U 07001A   26087.98523926  .00000078  00000+0  15525-4 0  9998
2 29709  98.1347  85.4108 0013590  86.8322 273.4448 14.85856445 39244
HAIYANG-1B              
1 31113U 07010A   26087.87598817  .00000124  00000+0  63025-4 0  9999
2 31113  98.3452  72.8571 0014747  80.1862 280.0986 14.31005383989142
BEIDOU-2 M1             
1 31115U 07011A   26086.62334465 -.00000020  00000+0  00000+0 0  9996
2 31115  50.9604 221.9879 0001952  29.0034 330.9599  1.77349210 74700
CAPE-1                  
1 31130U 07012P   26087.90558769  .00002221  00000+0  40709-3 0  9999
2 31130  98.4393  60.2907 0083030 322.6407  36.9038 14.64668975  6605
CBERS 2B                
1 32062U 07042A   26087.86012746  .00000284  00000+0  10025-3 0  9997
2 32062  98.3854  33.9446 0030228 214.9549 207.6098 14.41430427973113
COSMO-SKYMED 2          
1 32376U 07059A   26087.89101888  .00000317  00000+0  46353-4 0  9993
2 32376  97.8878 272.6500 0001291  87.7712 272.3649 14.82148116990105
CARTOSAT-2A             
1 32783U 08021A   26087.88590269  .00000380  00000+0  58013-4 0  9995
2 32783  97.7739 139.3039 0012293  19.5947 340.5734 14.79132747966931
CUTE-1.7+APD II (CO-65) 
1 32785U 08021C   26087.88357346  .00007913  00000+0  50929-3 0  9990
2 32785  97.8226  67.7062 0007651 310.2664  49.7894 15.08630422973089
SEEDS II (CO-66)        
1 32791U 08021J   26087.50130163  .00022720  00000+0  78688-3 0  9997
2 32791  97.7522  81.7278 0001837 175.4551 184.6705 15.29863940974947
YUBILEINY (RS30)        
1 32953U 08025A   26087.94220976  .00000044  00000+0  24330-3 0  9991
2 32953  82.5033  45.3440 0020209 123.9401 236.3604 12.43176842809726
FENGYUN 3A              
1 32958U 08026A   26087.83654698  .00000100  00000+0  68061-4 0  9990
2 32958  98.6822  30.2008 0008860   6.9013 353.2283 14.19552128924007
HUANJING 1A (HJ-1A)     
1 33320U 08041A   26087.92254207  .00001776  00000+0  21995-3 0  9997
2 33320  97.6653  76.8940 0020315  45.2919 314.9946 14.83782670946500
HUANJING 1B (HJ-1B)     
1 33321U 08041B   26087.92398557  .00001145  00000+0  14491-3 0  9998
2 33321  97.6500  80.3039 0038013  86.8205 273.7357 14.83150924946514
SHIJIAN-6 03A (SJ-6 03A)
1 33408U 08053A   26087.89310019  .00006146  00000+0  32044-3 0  9990
2 33408  97.8510 118.4375 0009999 291.3228  68.6937 15.16319714950799
SHIJIAN-6 03B (SJ-6 03B)
1 33409U 08053B   26087.93978988  .00003474  00000+0  25530-3 0  9994
2 33409  97.8630 106.4926 0018531 314.4380  45.5328 15.03992822950689
CHUANGXIN 1-02 (CX-1-02)
1 33434U 08056B   26087.98011331 -.00000042  00000+0  81693-6 0  9994
2 33434  98.6230 115.0186 0014657  20.6774 339.4998 14.30135013907156
STARS (KUKAI)           
1 33498U 09002G   26087.79308423  .00006076  00000+0  55883-3 0  9997
2 33498  98.1482  31.8907 0010347  77.7442 282.4936 14.95126558926462
KKS-1 (KISEKI)          
1 33499U 09002H   26087.83106510  .00001775  00000+0  22576-3 0  9990
2 33499  98.1185   9.0182 0007617 180.8320 179.2881 14.82898193924289
NOAA 19                 
1 33591U 09005A   26087.91881651  .00000034  00000+0  41907-4 0  9998
2 33591  98.9571 158.7189 0012735 255.9475 104.0282 14.13460436883149
UK-DMC 2                
1 35683U 09041C   26087.89054209  .00001475  00000+0  22200-3 0  9994
2 35683  97.8686 224.8854 0001416  99.4397 260.6973 14.75894459894726
METEOR-M 1              
1 35865U 09049A   26087.85574247  .00000114  00000+0  69843-4 0  9993
2 35865  98.7306  50.9429 0002388 154.8038 205.3257 14.23136775857824
OCEANSAT-2              
1 35931U 09051A   26087.99203559  .00000260  00000+0  20325-3 0  9993
2 35931  98.2312  82.8655 0017676  99.0085 261.3083 13.99652643868115
SWISSCUBE               
1 35932U 09051B   26087.70538564  .00001230  00000+0  25341-3 0  9991
2 35932  98.4083 354.1844 0008004 100.2437 259.9666 14.62309572877390
BEESAT-1                
1 35933U 09051C   26087.67362015  .00001032  00000+0  21755-3 0  9999
2 35933  98.4013 353.9539 0006348 111.3040 248.8838 14.61575406877426
ITUPSAT1                
1 35935U 09051E   26087.66283312  .00000934  00000+0  20347-3 0  9998
2 35935  98.4100 353.2185 0008419 122.6075 237.5938 14.60306720876985
DMSP 5D-3 F18 (USA 210) 
1 35951U 09057A   26087.87716165  .00000293  00000+0  17482-3 0  9996
2 35951  98.8989  68.8459 0012038 116.3880 243.8531 14.14848205848235
PROBA-2                 
1 36037U 09059B   26087.56552203  .00000277  00000+0  75051-4 0  9990
2 36037  98.2444 272.0362 0013517 164.7230 195.4378 14.54803586869806
YAOGAN-7                
1 36110U 09069A   26087.65935465  .00000658  00000+0  98367-4 0  9996
2 36110  98.0179 333.9811 0023460 300.8754  59.0149 14.77922206877737
XIWANG-1 (HOPE-1)       
1 36122U 09072B   26087.91279906  .00000426  00000+0  12314-2 0  9992
2 36122 100.3943  43.0567 0008129  59.2316 300.9597 13.16438761782445
RADUGA-1M 2             
1 36358U 10002A   26087.82331885 -.00000249  00000+0  00000+0 0  9993
2 36358   3.4123  79.8388 0008160 254.7318 114.2754  0.98968618 49235
COSMOS 2463             
1 36519U 10017A   26087.86732410  .00000070  00000+0  60352-4 0  9993
2 36519  82.9593 308.7407 0036062 355.1173  16.1337 13.71659740796920
CARTOSAT-2B             
1 36795U 10035A   26086.45793980  .00000944  00000+0  13576-3 0  9997
2 36795  97.9753 137.5018 0012736  94.8962 265.3704 14.78654353847770
AISSAT 1                
1 36797U 10035C   26087.74324803  .00002341  00000+0  20880-3 0  9995
2 36797  98.1014 344.1397 0008425 334.2158  25.8642 14.97006114852187
TISAT 1                 
1 36799U 10035E   26087.81275587  .00025672  00000+0  92620-3 0  9992
2 36799  98.0655  27.4637 0003596 128.5034 231.6526 15.28500358855419
YAOGAN-10               
1 36834U 10038A   26087.97317807  .00002214  00000+0  26532-3 0  9990
2 36834  97.9066 112.0034 0001605  83.4488 315.2061 14.85090507845308
SHIJIAN-6 04B (SJ-6 04B)
1 37180U 10051B   26087.93276723  .00000826  00000+0  72969-4 0  9990
2 37180  97.8714  92.5171 0010520 219.9110 140.1340 14.99146634843659
FENGYUN 3B              
1 37214U 10059A   26087.89956779  .00000212  00000+0  13318-3 0  9998
2 37214  98.9732 133.5396 0022948  56.0255  22.4793 14.14823169796070
COSMO-SKYMED 4          
1 37216U 10060A   26087.36359895  .00000145  00000+0  24820-4 0  9996
2 37216  97.8884 272.1304 0001497  81.3790 278.7593 14.82160786832594
O/OREOS (USA 219)       
1 37224U 10062C   26087.89034382  .00003296  00000+0  31897-3 0  9997
2 37224  71.9691 262.1742 0016156 224.2005 135.7876 14.93381659104653
ELEKTRO-L 1 (GOMS 2)    
1 37344U 11001A   26087.88565821 -.00000242  00000+0  00000+0 0  9997
2 37344   9.5061  55.3064 0003539  12.5216 358.5097  1.00166055 55689
RESOURCESAT-2           
1 37387U 11015A   26087.64518839 -.00000343  00000+0 -13402-3 0  9997
2 37387  98.7711 155.6137 0009516 117.2326 242.9823 14.22367515774738
YOUTHSAT                
1 37388U 11015B   26087.93389442  .00000251  00000+0  12317-3 0  9996
2 37388  98.3622  65.6368 0013707 213.8944 204.6018 14.25593295776202
APRIZESAT 6             
1 37793U 11044F   26087.72375956  .00000988  00000+0  14670-3 0  9991
2 37793  98.2404 356.5704 0042925 345.2266  68.7563 14.76793111785272
